LUDI TANCE 1-01A (L-SA*)
1 51284U 22007A   26155.87860766  .00000766  00000+0  88487-4 0  9995
2 51284  97.8104 163.4734 0001611  90.5738 269.5663 14.88418440236640
LUDI TANCE 1-01B (L-SA*)
1 51822U 22018A   26155.84497993  .00000802  00000+0  92416-4 0  9998
2 51822  97.8103 163.4360 0001555  93.3672 266.7723 14.88420533231879
JILIN-1 GAOFEN 03D15    
1 51839U 22019R   26155.87689927  .02534016  24331-5  98369-3 0  9992
2 51839  97.3593 253.7473 0011731 259.0434 100.9537 16.23821218238175
JILIN-1 GAOFEN 03D12    
1 51841U 22019T   26155.57087216  .05427683  24856-5  80359-3 0  9991
2 51841  97.3493 253.4173 0013637 262.3725  97.6023 16.34228631238138
2022-023F               
1 51951U 22023F   26155.82528292  .00018593  00000+0  73560-3 0  9996
2 51951  63.4459 315.5053 0128810 343.1804  16.5055 15.18154287235834
MERIDIAN 10             
1 52145U 22030A   26155.01022838  .00000208  00000+0  00000+0 0  9995
2 52145  62.6784 142.2055 6780054 272.8646  17.6775  2.00615010 30760
OMNI-L1                 
1 52157U 22033A   26155.22182406  .00002599  00000+0  32856-3 0  9995
2 52157  97.8393 234.6514 0004478 342.6299  17.4761 14.82699297225534
ENMAP                   
1 52159U 22033C   26155.81888769  .00000566  00000+0  91593-4 0  9993
2 52159  97.9792 238.2436 0001384  81.3684 278.7681 14.74977630224837
ARCSAT-1                
1 52161U 22033E   26155.24258030  .00014842  00000+0  23695-3 0  9994
2 52161  97.2749 247.3261 0003577 231.4725 128.6209 15.53290234233691
GLOBAL-18               
1 52196U 22034B   26155.64908286  .00024702  00000+0  51018-3 0  9998
2 52196  52.9832 316.5382 0003642 212.1923 147.8861 15.45718115235022
GAOFEN-3 03             
1 52200U 22035A   26155.88037679 -.00000048  00000+0 -13969-5 0  9994
2 52200  98.4060 164.6393 0001044  94.2772 265.8537 14.42213102219075
DAQI-1                  
1 52257U 22039A   26155.85824713  .00000348  00000+0  86173-4 0  9997
2 52257  98.1487  94.9659 0002654 313.2238  46.8739 14.57669846220143
BRO-6                   
1 52422U 22047AE  26155.80809968  .00038629  00000+0  69594-3 0  9990
2 52422  97.3400 246.6338 0005811 117.6420 242.5422 15.49681583229237
JILIN-1 GAOFEN 3D27     
1 52444U 22048B   26155.69396624  .00110097  00000+0  81826-3 0  9994
2 52444  97.5704 268.5268 0002790 104.4460 255.7112 15.72496875227511
JILIN-1 GAOFEN 3D28     
1 52445U 22048C   26155.71563109  .00125312  00000+0  83198-3 0  9992
2 52445  97.5639 268.6541 0002107 143.5190 216.6218 15.75097399227569
VIGORIDE-3              
1 52760U 22057AE  26154.65386735  .00006505  00000+0  24718-3 0  9997
2 52760  97.6595 294.2724 0008785 163.0539 197.0995 15.27129654223096
ION SCV-006             
1 52761U 22057AF  26155.14796753  .00014764  00000+0  31358-3 0  9992
2 52761  97.6094 303.1489 0017974 158.1442 202.0576 15.44954963224100
SHERPA-AC1              
1 52763U 22057AH  26154.32256370  .00008201  00000+0  23571-3 0  9996
2 52763  97.6674 302.9744 0008666 135.8969 224.2967 15.36058286223575
OMNI-L2                 
1 52771U 22057AR  26154.88324164  .00001686  00000+0  22191-3 0  9990
2 52771  97.4720 218.1356 0007003  21.9394 338.2118 14.81333559218422
STEP CUBE LAB-II        
1 52897U 22065D   26155.82759818  .00000956  00000+0  19467-3 0  9992
2 52897  98.2217 299.7680 0009868  66.6905 293.5334 14.63283137209699
RANDEV                  
1 52898U 22065E   26155.83193898  .00001085  00000+0  21784-3 0  9993
2 52898  98.2201 300.1191 0009239  67.2257 292.9920 14.63670176209446
SNUGLITE-II             
1 52899U 22065F   26153.81818698  .00001149  00000+0  22678-3 0  9996
2 52899  98.2186 298.6759 0008698  72.9663 287.2492 14.64318814208890
MIMAN                   
1 52900U 22065G   26155.18012964  .00000724  00000+0  15449-3 0  9999
2 52900  98.2246 297.7293 0008823  70.9014 289.3142 14.61829457208545
STARLINK-4362           
1 53043U 22077A   26155.30626734 -.00005942  00000+0 -40776-3 0  9991
2 53043  97.4043 334.8165 0002366  74.4107 285.7381 15.05683325213945
LARES-2                 
1 53105U 22080A   26154.55208436 -.00000012  00000+0  00000+0 0  9999
2 53105  70.1655 310.0052 0005379 337.8766  22.1504  6.38965171 90790
GREENCUBE (IO-117)      
1 53109U 22080E   26152.46502029 -.00000003  00000+0  00000+0 0  9996
2 53109  70.1435 303.7143 0008869 293.3663  66.6064  6.42583280 91055
STARLINK-4410           
1 53204U 22084R   26155.33356481  .00005323  00000+0  20654-3 0  9994
2 53204  97.5995 216.1608 0001345  93.9104   8.0816 15.26550769  5827
