OBJECT_NAME,OBJECT_ID,EPOCH,MEAN_MOTION,ECCENTRICITY,INCLINATION,RA_OF_ASC_NODE,ARG_OF_PERICENTER,MEAN_ANOMALY,EPHEMERIS_TYPE,CLASSIFICATION_TYPE,NORAD_CAT_ID,ELEMENT_SET_NO,REV_AT_EPOCH,BSTAR,MEAN_MOTION_DOT,MEAN_MOTION_DDOT
LUDI TANCE 1-01A (L-SAR 01A),2022-007A,2026-06-04T21:05:11.701824,14.88418440,.0001611,97.8104,163.4734,90.5738,269.5663,0,U,51284,999,23664,.88487E-4,.766E-5,0
LUDI TANCE 1-01B (L-SAR 01B),2022-018A,2026-06-04T20:16:46.265952,14.88420533,.0001555,97.8103,163.4360,93.3672,266.7723,0,U,51822,999,23187,.92416E-4,.802E-5,0
JILIN-1 GAOFEN 03D15,2022-019R,2026-06-04T21:02:44.096928,16.23821218,.0011731,97.3593,253.7473,259.0434,100.9537,0,U,51839,999,23817,.98369E-3,.2534016E-1,.24331E-5
JILIN-1 GAOFEN 03D12,2022-019T,2026-06-04T13:42:03.354624,16.34228631,.0013637,97.3493,253.4173,262.3725,97.6023,0,U,51841,999,23813,.80359E-3,.5427683E-1,.24856E-5
2022-023F,2022-023F,2026-06-04T19:48:24.444288,15.18154287,.012881,63.4459,315.5053,343.1804,16.5055,0,U,51951,999,23583,.7356E-3,.18593E-3,0
MERIDIAN 10,2022-030A,2026-06-04T00:14:43.732032,2.00615010,.6780054,62.6784,142.2055,272.8646,17.6775,0,U,52145,999,3076,0,.208E-5,0
OMNI-L1,2022-033A,2026-06-04T05:19:25.598784,14.82699297,.0004478,97.8393,234.6514,342.6299,17.4761,0,U,52157,999,22553,.32856E-3,.2599E-4,0
ENMAP,2022-033C,2026-06-04T19:39:11.896416,14.74977630,.0001384,97.9792,238.2436,81.3684,278.7681,0,U,52159,999,22483,.91593E-4,.566E-5,0
ARCSAT-1,2022-033E,2026-06-04T05:49:18.937920,15.53290234,.0003577,97.2749,247.3261,231.4725,128.6209,0,U,52161,999,23369,.23695E-3,.14842E-3,0
GLOBAL-18,2022-034B,2026-06-04T15:34:40.759104,15.45718115,.0003642,52.9832,316.5382,212.1923,147.8861,0,U,52196,999,23502,.51018E-3,.24702E-3,0
GAOFEN-3 03,2022-035A,2026-06-04T21:07:44.554656,14.42213102,.0001044,98.4060,164.6393,94.2772,265.8537,0,U,52200,999,21907,-.13969E-5,-.48E-6,0
DAQI-1,2022-039A,2026-06-04T20:35:52.552032,14.57669846,.0002654,98.1487,94.9659,313.2238,46.8739,0,U,52257,999,22014,.86173E-4,.348E-5,0
BRO-6,2022-047AE,2026-06-04T19:23:39.812352,15.49681583,.0005811,97.3400,246.6338,117.6420,242.5422,0,U,52422,999,22923,.69594E-3,.38629E-3,0
JILIN-1 GAOFEN 3D27,2022-048B,2026-06-04T16:39:18.683136,15.72496875,.000279,97.5704,268.5268,104.4460,255.7112,0,U,52444,999,22751,.81826E-3,.110097E-2,0
JILIN-1 GAOFEN 3D28,2022-048C,2026-06-04T17:10:30.526176,15.75097399,.0002107,97.5639,268.6541,143.5190,216.6218,0,U,52445,999,22756,.83198E-3,.125312E-2,0
VIGORIDE-3,2022-057AE,2026-06-03T15:41:34.139040,15.27129654,.00087855,97.6595,294.2724,163.0539,197.0995,0,U,52760,999,22309,.2471763E-3,.6505E-4,0
ION SCV-006,2022-057AF,2026-06-04T03:33:04.394592,15.44954963,.0017974,97.6094,303.1489,158.1442,202.0576,0,U,52761,999,22410,.31357851E-3,.14764E-3,0
SHERPA-AC1,2022-057AH,2026-06-03T07:44:29.503680,15.36058286,.00086669,97.6674,302.9744,135.8969,224.2967,0,U,52763,999,22357,.2357116E-3,.8201E-4,0
OMNI-L2,2022-057AR,2026-06-03T21:11:52.077696,14.81333559,.0007003,97.4720,218.1356,21.9394,338.2118,0,U,52771,999,21842,.22191E-3,.1686E-4,0
STEP CUBE LAB-II,2022-065D,2026-06-04T19:51:44.482752,14.63283137,.0009868,98.2217,299.7680,66.6905,293.5334,0,U,52897,999,20969,.19467E-3,.956E-5,0
RANDEV,2022-065E,2026-06-04T19:57:59.527872,14.63670176,.0009239,98.2201,300.1191,67.2257,292.9920,0,U,52898,999,20944,.21784E-3,.1085E-4,0
SNUGLITE-II,2022-065F,2026-06-02T19:38:11.355072,14.64318814,.00086986,98.2186,298.6759,72.9663,287.2492,0,U,52899,999,20889,.2267761E-3,.1149E-4,0
MIMAN,2022-065G,2026-06-04T04:19:23.200896,14.61829457,.00088235,98.2246,297.7293,70.9014,289.3142,0,U,52900,999,20854,.15449422E-3,.724E-5,0
STARLINK-4362,2022-077A,2026-06-04T07:21:01.498176,15.05683325,.00023668,97.4043,334.8165,74.4107,285.7381,0,U,53043,999,21394,-.40776422E-3,-.5942E-4,0
LARES-2,2022-080A,2026-06-03T13:15:00.088704,6.38965171,.00053798,70.1655,310.0052,337.8766,22.1504,0,U,53105,999,9079,0,-.12E-6,0
GREENCUBE (IO-117),2022-080E,2026-06-01T11:09:37.753056,6.42583280,.00088692,70.1435,303.7143,293.3663,66.6064,0,U,53109,999,9105,0,-.3E-7,0
STARLINK-4410,2022-084R,2026-06-04T08:00:19.999584,15.26550769,.00013451,97.5995,216.1608,93.9104,8.0816,0,U,53204,999,582,.20653842E-3,.5323E-4,0
